[{"OBJECT_NAME":"STARLINK-33882","OBJECT_ID":"2025-091P","EPOCH":"2026-03-08T23:29:16.217952","MEAN_MOTION":15.27604135,"ECCENTRICITY":0.0001337,"INCLINATION":43.0012,"RA_OF_ASC_NODE":56.5202,"ARG_OF_PERICENTER":173.0414,"MEAN_ANOMALY":187.0457,"EPHEMERIS_TYPE":0,"CLASSIFICATION_TYPE":"U","NORAD_CAT_ID":63788,"ELEMENT_SET_NO":999,"REV_AT_EPOCH":4878,"BSTAR":0.0011650705,"MEAN_MOTION_DOT":0.00031961,"MEAN_MOTION_DDOT":0},{"OBJECT_NAME":"BREEZE-M DEB [TANK]","OBJECT_ID":"2015-082C","EPOCH":"2026-03-09T16:04:58.533024","MEAN_MOTION":5.26405855,"ECCENTRICITY":0.52049851,"INCLINATION":49.5476,"RA_OF_ASC_NODE":107.6593,"ARG_OF_PERICENTER":249.3292,"MEAN_ANOMALY":49.0385,"EPHEMERIS_TYPE":0,"CLASSIFICATION_TYPE":"U","NORAD_CAT_ID":41193,"ELEMENT_SET_NO":999,"REV_AT_EPOCH":19238,"BSTAR":0.0011292245,"MEAN_MOTION_DOT":5.11e-5,"MEAN_MOTION_DDOT":0}]
